RAVAN                   
1 41849U 16067B   23208.40842790  .00007163  00000+0  48923-3 0  9990
2 41849  98.0403   4.5531 0016791  56.4499 303.8328 15.06391618366823
CELTEE 1                
1 41850U 16067C   23208.92458387  .00003925  00000+0  30461-3 0  9994
2 41850  98.0656 358.6467 0002005 102.6487 257.4960 15.01980332366536
OPTICUBE 04             
1 41851U 16067D   23209.36238043  .00003430  00000+0  28024-3 0  9992
2 41851  98.0524 357.0627 0015610  61.3610 298.9180 15.00012315366504
AEROCUBE 8D             
1 41852U 16067E   23208.95111842  .00005654  00000+0  43124-3 0  9992
2 41852  98.0740 357.8119 0007216 114.7672 245.4303 15.02429108366488
AEROCUBE 8C             
1 41853U 16067F   23208.87992239  .00005525  00000+0  42244-3 0  9990
2 41853  98.0543 357.1707 0010321  61.0234 299.2023 15.02323702366462
PROMETHEUS 2-1          
1 41854U 16067G   23208.89299293  .00009897  00000+0  67445-3 0  9999
2 41854  98.0727   0.5423 0017654  80.8993 279.4229 15.06350096366613
PROMETHEUS 2-3          
1 41855U 16067H   23208.88661078  .00009667  00000+0  65980-3 0  9990
2 41855  98.0648   0.3532 0015361  90.0166 270.2820 15.06332185366618
INS-1B                  
1 41954U 17008G   23208.41548647  .00110096  00000+0  11395-2 0  9990
2 41954  97.1950 269.6489 0005382 193.5119 166.5997 15.64347056359154
DIDO-2                  
1 42000U 17008BE  23209.15523219  .00018577  00000+0  44553-3 0  9997
2 42000  97.1985 264.6160 0004551 230.4369 129.6477 15.41428256358240
PEASSS                  
1 42015U 17008BV  23208.90718618  .00062487  00000+0  87543-3 0  9999
2 42015  97.2033 272.6301 0004181 199.5093 160.6003 15.56573310359187
UCLSAT                  
1 42765U 17036A   23209.34602857  .00063550  00000+0  89248-3 0  9994
2 42765  97.1382 248.1466 0002518 268.3446  91.7521 15.56509560339682
AALTO-1                 
1 42775U 17036L   23209.04065135  .00020329  00000+0  56167-3 0  9995
2 42775  97.1502 237.9389 0007596 326.1623  33.9136 15.37047018338793
URSA MAIOR              
1 42776U 17036M   23209.04866885  .00023550  00000+0  60516-3 0  9999
2 42776  97.1510 239.4138 0006892 320.5110  39.5633 15.39263625338878
DIAMOND RED             
1 42783U 17036U   23209.07031775  .00028879  00000+0  66022-3 0  9999
2 42783  97.1484 242.9306 0005173 324.6581  35.4323 15.42778543339090
PEGASUS                 
1 42784U 17036V   23209.03970620  .00044624  00000+0  76933-3 0  9995
2 42784  97.1445 246.0476 0003463 294.2262  65.8629 15.50911835339301
DIAMOND GREEN           
1 42785U 17036W   23209.04083734  .00032028  00000+0  70067-3 0  9995
2 42785  97.1477 243.1706 0004613 323.9733  36.1205 15.44074166339099
DIAMOND BLUE            
1 42786U 17036X   23208.88399022  .00030439  00000+0  67885-3 0  9995
2 42786  97.1480 242.9315 0004937 324.2280  35.8637 15.43510208339149
SUCHAI                  
1 42788U 17036Z   23209.06409586  .00112750  00000+0  11266-2 0  9993
2 42788  97.1391 250.5611 0003096 242.7773 117.3172 15.65242201339679
SKCUBE                  
1 42789U 17036AA  23209.05600347  .00069921  00000+0  95829-3 0  9990
2 42789  97.1401 248.5552 0003238 271.9971  88.0914 15.57141584339463
ROBUSTA 1B              
1 42792U 17036AD  23209.10121060  .00098805  00000+0  11133-2 0  9998
2 42792  97.1384 250.0961 0002714 241.4184 118.6802 15.62215932339589
CICERO 6                
1 42793U 17036AE  23208.89384457  .00024765  00000+0  60598-3 0  9999
2 42793  97.1470 242.7752 0004660 328.3104  31.7862 15.40761481339167
CORVUS BC2              
1 42846U 17042X   23209.02791883  .00003090  00000+0  28763-3 0  9992
2 42846  97.3849  47.8207 0010506  78.5843 281.6558 14.94934805328826
CORVUS BC1              
1 42847U 17042Y   23209.01661986  .00002799  00000+0  26045-3 0  9998
2 42847  97.3844  48.1701 0010021  77.2222 283.0119 14.95028784328835
MIRATA                  
1 43015U 17073C   23208.62252843  .00011312  00000+0  70225-3 0  9994
2 43015  97.6288  95.2281 0206365 279.9062  77.8920 14.93815034307527
MAKERSAT 0              
1 43016U 17073D   23208.57508259  .00008408  00000+0  56291-3 0  9993
2 43016  97.6273  93.0190 0221688 290.4895  67.2652 14.89224625307311
CORVUS BC3              
1 43118U 18004H   23208.64453876  .00023082  00000+0  57506-3 0  9998
2 43118  97.3232 282.9764 0006073  10.5581 349.5792 15.40222780308268
CICERO 7                
1 43143U 18004AJ  23208.89705755  .00069713  00000+0  85382-3 0  9993
2 43143  97.3330 296.7377 0002242 333.2482  26.8659 15.60142635309098
GOMX-4B                 
1 43196U 18015E   23208.89749671  .00018412  00000+0  49674-3 0  9992
2 43196  97.5823   1.0427 0014716  63.9153 296.3604 15.37734597305200
GOMX-4A                 
1 43197U 18015F   23209.39694597  .00018430  00000+0  44306-3 0  9992
2 43197  97.5819   3.8738 0013726  56.8328 303.4233 15.41278320305442
AEROCUBE 12B            
1 43557U 18046D   23209.38720220  .00404114  74734-4  11054-2 0  9999
2 43557  51.6197 331.7444 0009665 328.6502  31.3928 15.93429506282230
CUBEBEL-1 (BSUSAT-1)    
1 43666U 18083E   23209.41460165  .00030556  00000+0  74442-3 0  9990
2 43666  97.3780 241.3271 0006645 343.1190  16.9834 15.40844162263549
CICERO 10               
1 43690U 18088A   23208.98382028  .00019572  00000+0  52177-3 0  9990
2 43690  85.0291  44.9289 0012638  83.4577 276.8112 15.37945503261748
PROXIMA I               
1 43694U 18088E   23208.80155861  .00025212  00000+0  60622-3 0  9990
2 43694  85.0223  40.5426 0013422  50.4377 309.8059 15.41081508262037
PROXIMA II              
1 43696U 18088G   23209.01378533  .00025422  00000+0  61403-3 0  9990
2 43696  85.0226  40.4537 0013499  49.6812 310.5617 15.40943727262052
SIRION PATHFINDER-2     
1 43759U 18099B   23208.64433762  .00003747  00000+0  31340-3 0  9999
2 43759  97.5694 269.1750 0011646 346.9641  13.1279 14.99022975253686
CORVUS BC4              
1 43767U 18099K   23209.09071793  .00003572  00000+0  30323-3 0  9996
2 43767  97.5634 267.5010 0010221 349.3666  10.7340 14.98490477253656
MOVE-II                 
1 43780U 18099Y   23209.41565772  .00008011  00000+0  57490-3 0  9999
2 43780  97.5684 272.5861 0008766  23.3622 336.8001 15.04553342253934
SPACEBEE-7              
1 43816U 18099BL  23209.16471041  .00006522  00000+0  48643-3 0  9991
2 43816  97.5967 273.2149 0010029 327.3221  32.7383 15.03162510253467
SPACEBEE-5              
1 43817U 18099BM  23209.14178129  .00038915  00000+0  17881-2 0  9991
2 43817  97.5897 281.3771 0002356 283.3306  76.7666 15.20263437253911
SPACEBEE-6              
1 43818U 18099BN  23208.41987687  .00013921  00000+0  93054-3 0  9995
2 43818  97.5866 274.7055 0010615 341.7961  18.2885 15.07040239253622
SHIELDS 1               
1 43850U 18104B   23209.12311053  .00008013  00000+0  28110-3 0  9992
2 43850  85.0284 142.0997 0012052 192.5980 167.4967 15.29186347256363
STF-1                   
1 43852U 18104D   23209.09975625  .00041212  00000+0  84431-3 0  9997
2 43852  85.0241 139.2038 0009474 174.4537 185.6824 15.45858068256710
ZACUBE-2                
1 43907U 18111AH  23209.41966894  .00026269  00000+0  59877-3 0  9991
2 43907  97.1327  88.0997 0016136  69.6662 290.6318 15.42760163255508
LUME 1                  
1 43908U 18111AJ  23208.93698421  .00038604  00000+0  70026-3 0  9991
2 43908  97.1341  91.6668 0013436  59.9408 300.3174 15.49402653255693
MOVE-IIB                
1 44398U 19038N   23209.21972242  .00059478  00000+0  12450-2 0  9990
2 44398  97.6598 194.1251 0016365 135.8056 224.4502 15.45107321224990
SONATE                  
1 44400U 19038Q   23209.39551383  .00008686  00000+0  38001-3 0  9998
2 44400  97.6855 187.9187 0021122 162.8091 197.3865 15.22108810224500
LUCKY-7                 
1 44406U 19038W   23208.67662338  .00014451  00000+0  57502-3 0  9991
2 44406  97.6817 188.6282 0019681 158.7724 201.4334 15.25199248224496
BEESAT 9                
1 44412U 19038AC  23208.93146091  .00025380  00000+0  82148-3 0  9997
2 44412  97.6747 190.9695 0016625 152.7561 207.4556 15.31896912224397
JAISAT-1                
1 44419U 19038F   23208.93859016  .00025248  00000+0  81016-3 0  9998
2 44419  97.6744 192.0768 0016001 149.1275 211.0910 15.32186295224779
DUCHIFAT-3              
1 44854U 19089C   23209.29759843  .00007317  00000+0  48490-3 0  9990
2 44854  36.9602 205.4725 0009532 286.0292  73.9402 15.06901985199037
EYESAT-NANO             
1 44877U 19092E   23209.01427655  .00063939  00000+0  12665-2 0  9998
2 44877  97.4572  40.4924 0005246 337.8654  22.2368 15.46833232200408
M2 PATHFINDER           
1 45727U 20037E   23208.71220362  .00003676  00000+0  34702-3 0  9995
2 45727  97.7604  22.9390 0013380 125.5007 234.7463 14.94290548167290
NETSAT-4                
1 46504U 20068U   23209.32179519  .00006205  00000+0  40552-3 0  9999
2 46504  97.7636 155.5391 0012109  38.9665 321.2433 15.08122213155103
NETSAT-3                
1 46505U 20068V   23208.56376737  .00006279  00000+0  41269-3 0  9993
2 46505  97.7612 154.5752 0011491  49.5768 310.6461 15.07912401154997
NETSAT-1                
1 46506U 20068W   23208.81477366  .00005697  00000+0  37869-3 0  9996
2 46506  97.7619 154.6922 0009897  57.3410 302.8771 15.07546741155025
NETSAT-2                
1 46507U 20068X   23209.32163062  .00006120  00000+0  40103-3 0  9996
2 46507  97.7623 155.2727 0009548  62.6555 297.5644 15.08050479155054
SAI-1 NANOCONNECT-2     
1 47701U 21015C   23209.16622418  .00059014  00000+0  92885-3 0  9997
2 47701  97.3817 293.5225 0006450  88.5975 271.6017 15.53382356134509
WILDTRACKCUBE-SIMBA     
1 47941U 21022K   23209.38003506  .00006202  00000+0  35517-3 0  9996
2 47941  97.4934 105.6986 0018533 187.9774 172.1165 15.12831602129230
BEESAT-6                
1 47957U 21022AB  23208.99559221  .00021223  00000+0  96407-3 0  9994
2 47957  97.4903 107.5684 0015998 179.5254 180.6000 15.20677975129132
